NORAD_CAT_ID,OBJECT_NAME,OBJECT_TYPE,EPOCH,MEAN_MOTION,ECCENTRICITY,INCLINATION,RA_OF_ASC_NODE,ARG_OF_PERICENTER,MEAN_ANOMALY,BSTAR,MEAN_MOTION_DOT,MEAN_MOTION_DDOT,TLE_LINE0,TLE_LINE1,TLE_LINE2,SEMIMAJOR_AXIS,PERIOD,APOGEE,PERIGEE,DECAYED
52304.0,STARLINK-3744,PAYLOAD,2022-10-16 08:45:13,15.08838591,0.0001902,53.2157,257.1577,39.5547,320.5584,1.4166e-05,-6.3e-07,0.0,0 STARLINK-3744,1 52304U 22041AV  22289.36473432 -.00000063  00000-0  14166-4 0  9990,2 52304  53.2157 257.1577 0001902  39.5547 320.5584 15.08838591 28610,6917.885,95.438,541.065,538.434,0.0
52304.0,STARLINK-3744,PAYLOAD,2022-10-16 15:06:45,15.08839082,0.0001538,53.2153,255.9676,45.4746,314.6371,-6.782399999999999e-05,-1.367e-05,0.0,0 STARLINK-3744,1 52304U 22041AV  22289.62969584 -.00001367  00000-0 -67824-4 0  9995,2 52304  53.2153 255.9676 0001538  45.4746 314.6371 15.08839082 27437,6917.8830000000025,95.438,540.812,538.684,0.0
52304.0,STARLINK-3744,PAYLOAD,2022-10-17 07:00:36,15.08874734,0.0001914,53.216,252.9923,42.9253,317.1888,-0.0004493,-7.439e-05,0.0,0 STARLINK-3744,1 52304U 22041AV  22290.29208602 -.00007439  00000-0 -44930-3 0  9995,2 52304  53.2160 252.9923 0001914  42.9253 317.1888 15.08874734 27535,6917.774,95.435,540.9630000000002,538.315,0.0
52304.0,STARLINK-3744,PAYLOAD,2022-10-17 14:57:32,15.08839322,0.0001869,53.216,251.5056,43.1431,316.9707,1.889e-07,-2.85e-06,0.0,0 STARLINK-3744,1 52304U 22041AV  22290.62329395 -.00000285  00000-0  18890-6 0  9995,2 52304  53.2160 251.5056 0001869  43.1431 316.9707 15.08839322 28809,6917.882,95.438,541.04,538.455,0.0
52304.0,STARLINK-3744,PAYLOAD,2022-10-18 06:51:24,15.08836576,0.0001881,53.2165,248.5321,42.8332,317.2807,3.4785e-05,2.65e-06,0.0,0 STARLINK-3744,1 52304U 22041AV  22291.28569453  .00000265  00000-0  34785-4 0  9995,2 52304  53.2165 248.5321 0001881  42.8332 317.2807 15.08836576 27683,6917.891,95.438,541.057,538.455,0.0
52304.0,STARLINK-3744,PAYLOAD,2022-10-18 14:48:20,15.08833265,0.0001906,53.2158,247.0455,41.9031,318.2106,5.0193e-06,-2.08e-06,0.0,0 STARLINK-3744,1 52304U 22041AV  22291.61689857 -.00000208  00000-0  50193-5 0  9993,2 52304  53.2158 247.0455 0001906  41.9031 318.2106 15.08833265 28957,6917.901,95.438,541.085,538.447,0.0
52304.0,STARLINK-3744,PAYLOAD,2022-10-18 21:09:53,15.08829492,0.0001988,53.2175,245.8551,49.5681,310.5484,-4.3863e-05,-9.86e-06,0.0,0 STARLINK-3744,1 52304U 22041AV  22291.88186459 -.00000986  00000-0 -43863-4 0  9991,2 52304  53.2175 245.8551 0001988  49.5681 310.5484 15.08829492 27774,6917.913000000001,95.438,541.153,538.4019999999998,0.0
52304.0,STARLINK-3744,PAYLOAD,2022-10-19 03:31:25,15.08828036,0.0001983,53.217,244.6658,49.5416,310.5749,-6.4718e-05,-1.318e-05,0.0,0 STARLINK-3744,1 52304U 22041AV  22292.14682764 -.00001318  00000-0 -64718-4 0  9993,2 52304  53.2170 244.6658 0001983  49.5416 310.5749 15.08828036 29033,6917.917,95.438,541.154,538.41,0.0
52304.0,STARLINK-3744,PAYLOAD,2022-10-19 06:42:12,15.08828284,0.0001979,53.2169,244.0706,51.1502,308.9667,-4.8679e-05,-1.063e-05,0.0,0 STARLINK-3744,1 52304U 22041AV  22292.27930764 -.00001063  00000-0 -48679-4 0  9998,2 52304  53.2169 244.0706 0001979  51.1502 308.9667 15.08828284 27830,6917.916,95.438,541.15,538.4119999999998,0.0
52304.0,STARLINK-3744,PAYLOAD,2022-10-20 04:57:35,15.08837899,0.0001978,53.2183,239.9085,50.7866,309.3302,-7.386499999999999e-06,-4.06e-06,0.0,0 STARLINK-3744,1 52304U 22041AV  22293.20666049 -.00000406  00000-0 -73865-5 0  9990,2 52304  53.2183 239.9085 0001978  50.7866 309.3302 15.08837899 29190,6917.887,95.438,541.12,538.383,0.0
52304.0,STARLINK-3744,PAYLOAD,2022-10-20 06:32:58,15.08838279,0.0001968,53.218,239.6108,51.5428,308.574,3.7901e-06,-2.28e-06,0.0,0 STARLINK-3744,1 52304U 22041AV  22293.27289985 -.00000228  00000-0  37901-5 0  9999,2 52304  53.2180 239.6108 0001968  51.5428 308.5740 15.08838279 27987,6917.886,95.438,541.112,538.389,0.0
52304.0,STARLINK-3744,PAYLOAD,2022-10-21 04:48:22,15.08836179,0.0002011,53.218,235.4481,44.7378,315.3776,6.7553e-05,7.87e-06,0.0,0 STARLINK-3744,1 52304U 22041AV  22294.20026063  .00000787  00000-0  67553-4 0  9993,2 52304  53.2180 235.4481 0002011  44.7378 315.3776 15.08836179 28122,6917.892,95.438,541.148,538.366,0.0
52304.0,STARLINK-3744,PAYLOAD,2022-10-22 04:39:09,15.08842796,0.0001975,53.2173,230.988,47.0498,313.0659,-0.00011654,-2.143e-05,0.0,0 STARLINK-3744,1 52304U 22041AV  22295.19386243 -.00002143  00000-0 -11654-3 0  9991,2 52304  53.2173 230.9880 0001975  47.0498 313.0659 15.08842796 29492,6917.871999999999,95.437,541.1030000000002,538.371,0.0
52304.0,STARLINK-3744,PAYLOAD,2022-10-22 15:46:51,15.08834142,0.0001973,53.2173,228.9065,46.1671,313.9484,-1.9533e-05,-5.99e-06,0.0,0 STARLINK-3744,1 52304U 22041AV  22295.65754502 -.00000599  00000-0 -19533-4 0  9997,2 52304  53.2173 228.9065 0001973  46.1671 313.9484 15.08834142 28349,6917.898,95.438,541.128,538.398,0.0
52304.0,STARLINK-3744,PAYLOAD,2022-10-23 04:29:55,15.08849371,0.0002086999999999,53.2176,226.5288,47.0728,313.0439,6.742e-05,7.85e-06,0.0,0 STARLINK-3744,1 52304U 22041AV  22296.18745131  .00000785  00000-0  67420-4 0  9997,2 52304  53.2176 226.5288 0002087  47.0728 313.0439 15.08849371 28423,6917.852,95.437,541.161,538.273,0.0
52304.0,STARLINK-3744,PAYLOAD,2022-10-23 18:48:23,15.08843654,0.0001969,53.2172,223.8517,48.9709,311.1453,8.0931e-05,1e-05,0.0,0 STARLINK-3744,1 52304U 22041AV  22296.78360993  .00001000  00000-0  80931-4 0  9995,2 52304  53.2172 223.8517 0001969  48.9709 311.1453 15.08843654 28514,6917.869000000002,95.437,541.096,538.372,0.0
52304.0,STARLINK-3744,PAYLOAD,2022-10-24 01:09:56,15.08842328,0.000197,53.2174,222.6621,48.93899999999999,311.1772,6.1892e-05,6.97e-06,0.0,0 STARLINK-3744,1 52304U 22041AV  22297.04857080  .00000697  00000-0  61892-4 0  9999,2 52304  53.2174 222.6621 0001970  48.9390 311.1772 15.08842328 29777,6917.873000000001,95.437,541.101,538.375,0.0
52304.0,STARLINK-3744,PAYLOAD,2022-10-24 12:17:39,15.08825397,0.0002236,53.2171,220.5811,46.5027,313.6151,-4.0828e-05,-9.38e-06,0.0,0 STARLINK-3744,1 52304U 22041AV  22297.51226667 -.00000938  00000-0 -40828-4 0  9998,2 52304  53.2171 220.5811 0002236  46.5027 313.6151 15.08825397 28627,6917.925,95.438,541.337,538.243,0.0
52304.0,STARLINK-3744,PAYLOAD,2022-10-24 18:39:13,15.08819246,0.0002292,53.2169,219.3927,48.1258,311.993,-0.00027384,-4.642e-05,0.0,0 STARLINK-3744,1 52304U 22041AV  22297.77724181 -.00004642  00000-0 -27384-3 0  9997,2 52304  53.2169 219.3927 0002292  48.1258 311.9930 15.08819246 29885,6917.944,95.439,541.394,538.2230000000002,0.0
52304.0,STARLINK-3744,PAYLOAD,2022-10-25 04:11:32,15.08824541,0.0002123,53.2176,217.6051,43.8525,316.2636,-0.00021004,-3.628e-05,0.0,0 STARLINK-3744,1 52304U 22041AV  22298.17468000 -.00003628  00000-0 -21004-3 0  9993,2 52304  53.2176 217.6051 0002123  43.8525 316.2636 15.08824541 28721,6917.928000000001,95.439,541.261,538.3240000000002,0.0
52304.0,STARLINK-3744,PAYLOAD,2022-10-25 12:08:27,15.08825812,0.0001859,53.2168,216.1196,49.6737,310.4417,-0.00013421,-2.423e-05,0.0,0 STARLINK-3744,1 52304U 22041AV  22298.50587904 -.00002423  00000-0 -13421-3 0  9991,2 52304  53.2168 216.1196 0001859  49.6737 310.4417 15.08825812 28770,6917.924,95.438,541.075,538.503,0.0
52304.0,STARLINK-3744,PAYLOAD,2022-10-26 04:02:19,15.08833146,0.0001937,53.2168,213.1461,46.0782,314.0370000000001,-3.7186e-05,-8.8e-06,0.0,0 STARLINK-3744,1 52304U 22041AV  22299.16827596 -.00000880  00000-0 -37186-4 0  9998,2 52304  53.2168 213.1461 0001937  46.0782 314.0370 15.08833146 30095,6917.901,95.438,541.106,538.4259999999998,0.0
52304.0,STARLINK-3744,PAYLOAD,2022-10-26 11:59:14,15.08840026,0.0001732,53.2171,211.6596,50.8456,309.269,-3.1235e-06,-3.38e-06,0.0,0 STARLINK-3744,1 52304U 22041AV  22299.49947110 -.00000338  00000-0 -31235-5 0  9997,2 52304  53.2171 211.6596 0001732  50.8456 309.2690 15.08840026 30147,6917.88,95.438,540.943,538.547,0.0
52304.0,STARLINK-3744,PAYLOAD,2022-10-27 03:53:05,15.08840137,0.000186,53.2177,208.685,47.5615,312.5534,0.00024078,3.546e-05,0.0,0 STARLINK-3744,1 52304U 22041AV  22300.16186672  .00003546  00000-0  24078-3 0  9999,2 52304  53.2177 208.6850 0001860  47.5615 312.5534 15.08840137 29026,6917.88,95.438,541.0319999999998,538.4580000000002,0.0
52304.0,STARLINK-3744,PAYLOAD,2022-10-27 22:57:43,15.08843907,0.0001823,53.2182,205.1156,55.7078,304.4087,8.1268e-05,1.006e-05,0.0,0 STARLINK-3744,1 52304U 22041AV  22300.95674866  .00001006  00000-0  81268-4 0  9997,2 52304  53.2182 205.1156 0001823  55.7078 304.4087 15.08843907 30366,6917.868,95.437,540.995,538.472,0.0
52304.0,STARLINK-3744,PAYLOAD,2022-10-28 00:33:06,15.08844515,0.0001992,53.2178,204.8194,48.9008,311.2156,8.6557e-05,1.09e-05,0.0,0 STARLINK-3744,1 52304U 22041AV  22301.02298856  .00001090  00000-0  86557-4 0  9996,2 52304  53.2178 204.8194 0001992  48.9008 311.2156 15.08844515 29157,6917.8669999999975,95.437,541.11,538.354,0.0
52304.0,STARLINK-3744,PAYLOAD,2022-10-28 18:02:19,15.08856898,0.000192,53.2175,201.5482,45.8349,314.2801,1.3205e-05,-7.8e-07,0.0,0 STARLINK-3744,1 52304U 22041AV  22301.75161769 -.00000078  00000-0  13205-4 0  9994,2 52304  53.2175 201.5482 0001920  45.8349 314.2801 15.08856898 30488,6917.829000000002,95.436,541.0219999999998,538.366,0.0
52304.0,STARLINK-3744,PAYLOAD,2022-10-29 00:23:52,15.08849221,0.0001975,53.2177,200.3592,43.8871,316.2278,-7.8366e-05,-1.536e-05,0.0,0 STARLINK-3744,1 52304U 22041AV  22302.01658465 -.00001536  00000-0 -78366-4 0  9998,2 52304  53.2177 200.3592 0001975  43.8871 316.2278 15.08849221 29308,6917.852,95.437,541.0830000000002,538.351,0.0
52304.0,STARLINK-3744,PAYLOAD,2022-10-29 21:03:52,15.08852348,0.0001876999999999,53.2176,196.4952,45.7128,314.4018,2.6026e-05,1.26e-06,0.0,0 STARLINK-3744,1 52304U 22041AV  22302.87769237  .00000126  00000-0  26026-4 0  9990,2 52304  53.2176 196.4952 0001877  45.7128 314.4018 15.08852348 30655,6917.843000000003,95.437,541.006,538.409,0.0
